GPS BIIR-2  (PRN 13)    
1 24876U 97035A   22015.29821944  .00000026  00000+0  00000+0 0  9996
2 24876  55.4933 161.6484 0056098  54.3278 306.1545  2.00563224179583
GPS BIIR-4  (PRN 20)    
1 26360U 00025A   22015.30841521 -.00000057  00000+0  00000+0 0  9999
2 26360  53.9347  85.1993 0052964 180.0969 274.2606  2.00557374158907
GPS BIIR-8  (PRN 16)    
1 27663U 03005A   22015.53492218  .00000001  00000+0  00000+0 0  9995
2 27663  55.6177 279.1333 0124895  39.1808 197.8627  2.00573704138946
GPS BIIR-9  (PRN 21)    
1 27704U 03010A   22015.53954942 -.00000068  00000+0  00000+0 0  9998
2 27704  54.9634  29.5013 0246913 301.0402 158.2431  2.00573179137748
GPS BIIR-10 (PRN 22)    
1 28129U 03058A   22015.48813452 -.00000056  00000+0  00000+0 0  9993
2 28129  53.7471  87.8160 0070744 309.6821  49.7415  2.00568162132424
GPS BIIR-11 (PRN 19)    
1 28190U 04009A   22015.28274939 -.00000089  00000+0  00000+0 0  9993
2 28190  56.0900 340.0818 0087032 114.9593 100.2946  2.00563638130579
GPS BIIR-13 (PRN 02)    
1 28474U 04045A   22015.11160628 -.00000068  00000+0  00000+0 0  9996
2 28474  55.2933  29.6006 0208648 276.4511  83.1304  2.00563934126067
GPS BIIRM-1 (PRN 17)    
1 28874U 05038A   22015.60672569 -.00000086  00000+0  00000+0 0  9999
2 28874  56.1625 337.4957 0139429 273.4029 197.5606  2.00556447119478
GPS BIIRM-2 (PRN 31)    
1 29486U 06042A   22015.57154845  .00000096  00000+0  00000+0 0  9993
2 29486  54.7355 215.3541 0103825  19.7534 343.3190  2.00563293112039
GPS BIIRM-3 (PRN 12)    
1 29601U 06052A   22015.01781976 -.00000001  00000+0  00000+0 0  9990
2 29601  55.6201 278.0859 0083661  70.3784 290.5841  2.00569957111039
GPS BIIRM-4 (PRN 15)    
1 32260U 07047A   22015.32307152 -.00000004  00000+0  00000+0 0  9997
2 32260  53.2767 146.8901 0137415  60.9036 300.4221  2.00556865104441
GPS BIIRM-5 (PRN 29)    
1 32384U 07062A   22015.39320418 -.00000087  00000+0  00000+0 0  9999
2 32384  56.2769 338.2458 0015962 136.8361  45.1755  2.00553544103145
GPS BIIRM-6 (PRN 07)    
1 32711U 08012A   22014.74371869  .00000099  00000+0  00000+0 0  9995
2 32711  54.4926 214.3576 0155916 228.9761 129.7157  2.00559836101378
GPS BIIRM-8 (PRN 05)    
1 35752U 09043A   22015.30931969 -.00000055  00000+0  00000+0 0  9997
2 35752  54.9551  91.6996 0056932  56.9026   9.2709  2.00566576 90997
GPS BIIF-1  (PRN 25)    
1 36585U 10022A   22015.40728513  .00000012  00000+0  00000+0 0  9993
2 36585  54.8992 273.6958 0101755  54.9872 198.7408  2.00557564 85228
GPS BIIF-2  (PRN 01)    
1 37753U 11036A   22015.51245160 -.00000061  00000+0  00000+0 0  9996
2 37753  56.5336  34.6619 0110710  49.6738   4.0890  2.00564588 76913
GPS BIIF-3  (PRN 24)    
1 38833U 12053A   22015.42166090  .00000092  00000+0  00000+0 0  9993
2 38833  53.5454 209.6202 0121139  45.1081 315.9098  2.00560197 67075
GPS BIIF-4  (PRN 27)    
1 39166U 13023A   22015.28233978 -.00000087  00000+0  00000+0 0  9990
2 39166  55.7963 333.9415 0099082  35.0359 325.6043  2.00566889 63515
GPS BIIF-5  (PRN 30)    
1 39533U 14008A   22015.27895345  .00000094  00000+0  00000+0 0  9990
2 39533  53.6428 215.1164 0055066 204.4509 155.3375  2.00572625 57313
GPS BIIF-6  (PRN 06)    
1 39741U 14026A   22015.05925661 -.00000063  00000+0  00000+0 0  9999
2 39741  56.4981  34.2060 0028238 300.2242  59.5478  2.00566930 56167
GPS BIIF-7  (PRN 09)    
1 40105U 14045A   22015.15220826  .00000008  00000+0  00000+0 0  9996
2 40105  54.6621 152.9255 0021144 108.2514 251.9384  2.00567357 53700
GPS BIIF-8  (PRN 03)    
1 40294U 14068A   22015.02512808 -.00000056  00000+0  00000+0 0  9994
2 40294  55.7001  94.0017 0036654  53.9658 306.4078  2.00560808 52835
GPS BIIF-9  (PRN 26)    
1 40534U 15013A   22015.15719090  .00000015  00000+0  00000+0 0  9992
2 40534  53.8024 271.0463 0066922  18.1414 342.1687  2.00561994 49456
GPS BIIF-10 (PRN 08)    
1 40730U 15033A   22015.31937967 -.00000087  00000+0  00000+0 0  9995
2 40730  55.2986 332.8416 0071182   2.8664 357.1671  2.00560100 47626
GPS BIIF-11 (PRN 10)    
1 41019U 15062A   22015.36939682 -.00000052  00000+0  00000+0 0  9991
2 41019  55.6908  93.8277 0075629 216.1417 143.3813  2.00563166 45468
GPS BIIF-12 (PRN 32)    
1 41328U 16007A   22014.96646796  .00000010  00000+0  00000+0 0  9993
2 41328  54.8839 153.5668 0055882 225.7097 133.7920  2.00552894 43468
GPS BIII-1  (PRN 04)    
1 43873U 18109A   22015.60812319  .00000013  00000+0  00000+0 0  9996
2 43873  55.0650 155.9273 0016726 190.1672 168.5254  2.00564870 22702
GPS BIII-2  (PRN 18)    
1 44506U 19056A   22015.50068189 -.00000063  00000+0  00000+0 0  9995
2 44506  55.6042  35.1363 0020989 184.4717 359.1446  2.00569484 17709
GPS BIII-3  (PRN 23)    
1 45854U 20041A   22015.74167218 -.00000049  00000+0  00000+0 0  9991
2 45854  55.4072  92.3980 0019157 173.5304 124.3810  2.00560950 11679
GPS BIII-4  (PRN 14)    
1 46826U 20078A   22015.51184894  .00000007  00000+0  00000+0 0  9998
2 46826  54.6695 276.3013 0013240 184.1055 279.2183  2.00566932  9148
